{"type": "FeatureCollection", "features": [ {"type": "Feature", "properties": {"norad_id": 28659, "name": "DIRECTV 8", "group": "intelsat", "lat": 0.04233502339837373, "lon": 55.50326576416961, "alt_km": 35795.102080895726, "timestamp": "2025-12-20T05:41:49.685720+00:00", "meta": {"OBJECT_NAME": "DIRECTV 8", "OBJECT_ID": "2005-019A", "EPOCH": "2025-12-19T17:49:48.179136", "MEAN_MOTION": 1.0027119, "ECCENTRICITY": 0.00028368, "INCLINATION": 0.0186, "RA_OF_ASC_NODE": 339.2172, "ARG_OF_PERICENTER": 298.7344, "MEAN_ANOMALY": 319.047, "EPHEMERIS_TYPE": 0, "CLASSIFICATION_TYPE": "U", "NORAD_CAT_ID": 28659, "ELEMENT_SET_NO": 999, "REV_AT_EPOCH": 7527, "BSTAR": 0, "MEAN_MOTION_DOT": 2.6e-07, "MEAN_MOTION_DDOT": 0}, "tle": {"line1": "1 28659U 05019A   25353.74291874  .00000026  00000+0  00000+0 0  9991", "line2": "2 28659   0.0186 339.2172 0002836 298.7344 319.0470  1.00271190 75276"}}, "geometry": {"type": "Point", "coordinates": [55.50326576416961, 0.04233502339837373]}}, {"type": "Feature", "properties": {"norad_id": 28702, "name": "GALAXY 28 (G-28)", "group": "intelsat", "lat": 0.2574454476460364, "lon": 85.84083614031046, "alt_km": 35798.52537106392, "timestamp": "2025-12-20T05:41:49.685733+00:00", "meta": {"OBJECT_NAME": "GALAXY 28 (G-28)", "OBJECT_ID": "2005-022A", "EPOCH": "2025-12-19T11:26:27.362976", "MEAN_MOTION": 1.00271143, "ECCENTRICITY": 0.000292, "INCLINATION": 2.8368, "RA_OF_ASC_NODE": 81.2048, "ARG_OF_PERICENTER": 192.9214, "MEAN_ANOMALY": 257.1318, "EPHEMERIS_TYPE": 0, "CLASSIFICATION_TYPE": "U", "NORAD_CAT_ID": 28702, "ELEMENT_SET_NO": 999, "REV_AT_EPOCH": 5017, "BSTAR": 0, "MEAN_MOTION_DOT": -1.65e-06, "MEAN_MOTION_DDOT": 0}, "tle": {"line1": "1 28702U 05022A   25353.47670559 -.00000165  00000+0  00000+0 0  9990", "line2": "2 28702   2.8368  81.2048 0002920 192.9214 257.1318  1.00271143 50171"}}, "geometry": {"type": "Point", "coordinates": [85.84083614031046, 0.2574454476460364]}}, {"type": "Feature", "properties": {"norad_id": 29236, "name": "GALAXY 16 (G-16)", "group": "intelsat", "lat": 0.004249447527315795, "lon": 75.5228344224809, "alt_km": 35796.46434392087, "timestamp": "2025-12-20T05:41:49.685744+00:00", "meta": {"OBJECT_NAME": "GALAXY 16 (G-16)", "OBJECT_ID": "2006-023A", "EPOCH": "2025-12-19T19:38:15.293184", "MEAN_MOTION": 1.00271351, "ECCENTRICITY": 0.0002456, "INCLINATION": 0.0112, "RA_OF_ASC_NODE": 252.3404, "ARG_OF_PERICENTER": 13.2897, "MEAN_ANOMALY": 18.5919, "EPHEMERIS_TYPE": 0, "CLASSIFICATION_TYPE": "U", "NORAD_CAT_ID": 29236, "ELEMENT_SET_NO": 999, "REV_AT_EPOCH": 7117, "BSTAR": 0, "MEAN_MOTION_DOT": -1.02e-06, "MEAN_MOTION_DDOT": 0}, "tle": {"line1": "1 29236U 06023A   25353.81823256 -.00000102  00000+0  00000+0 0  9998", "line2": "2 29236   0.0112 252.3404 0002456  13.2897  18.5919  1.00271351 71174"}}, "geometry": {"type": "Point", "coordinates": [75.5228344224809, 0.004249447527315795]}}, {"type": "Feature", "properties": {"norad_id": 29494, "name": "DIRECTV 9S", "group": "intelsat", "lat": -0.3069941926392661, "lon": 73.32975593722742, "alt_km": 35797.29826868603, "timestamp": "2025-12-20T05:41:49.685756+00:00", "meta": {"OBJECT_NAME": "DIRECTV 9S", "OBJECT_ID": "2006-043A", "EPOCH": "2025-12-19T13:25:20.116704", "MEAN_MOTION": 1.00271735, "ECCENTRICITY": 0.0002813, "INCLINATION": 1.9568, "RA_OF_ASC_NODE": 83.1418, "ARG_OF_PERICENTER": 191.001, "MEAN_ANOMALY": 274.3862, "EPHEMERIS_TYPE": 0, "CLASSIFICATION_TYPE": "U", "NORAD_CAT_ID": 29494, "ELEMENT_SET_NO": 999, "REV_AT_EPOCH": 4958, "BSTAR": 0, "MEAN_MOTION_DOT": -9e-07, "MEAN_MOTION_DDOT": 0}, "tle": {"line1": "1 29494U 06043A   25353.55926061 -.00000090  00000+0  00000+0 0  9991", "line2": "2 29494   1.9568  83.1418 0002813 191.0010 274.3862  1.00271735 49584"}}, "geometry": {"type": "Point", "coordinates": [73.32975593722742, -0.3069941926392661]}}, {"type": "Feature", "properties": {"norad_id": 31307, "name": "GALAXY 17 (G-17)", "group": "intelsat", "lat": 0.34919806207413756, "lon": 89.53695498362471, "alt_km": 35807.88852480284, "timestamp": "2025-12-20T05:41:49.685768+00:00", "meta": {"OBJECT_NAME": "GALAXY 17 (G-17)", "OBJECT_ID": "2007-016B", "EPOCH": "2025-12-19T12:51:34.890336", "MEAN_MOTION": 1.00272466, "ECCENTRICITY": 0.0005441, "INCLINATION": 2.5163, "RA_OF_ASC_NODE": 82.2108, "ARG_OF_PERICENTER": 169.7532, "MEAN_ANOMALY": 304.3514, "EPHEMERIS_TYPE": 0, "CLASSIFICATION_TYPE": "U", "NORAD_CAT_ID": 31307, "ELEMENT_SET_NO": 999, "REV_AT_EPOCH": 6800, "BSTAR": 0, "MEAN_MOTION_DOT": -1.84e-06, "MEAN_MOTION_DDOT": 0}, "tle": {"line1": "1 31307U 07016B   25353.53582049 -.00000184  00000+0  00000+0 0  9994", "line2": "2 31307   2.5163  82.2108 0005441 169.7532 304.3514  1.00272466 68003"}}, "geometry": {"type": "Point", "coordinates": [89.53695498362471, 0.34919806207413756]}}, {"type": "Feature", "properties": {"norad_id": 31862, "name": "DIRECTV 10", "group": "intelsat", "lat": -0.0013757707847900805, "lon": 71.71003878962188, "alt_km": 35787.13961129635, "timestamp": "2025-12-20T05:41:49.685784+00:00", "meta": {"OBJECT_NAME": "DIRECTV 10", "OBJECT_ID": "2007-032A", "EPOCH": "2025-12-19T19:37:07.901184", "MEAN_MOTION": 1.00269717, "ECCENTRICITY": 2.514e-05, "INCLINATION": 0.0066, "RA_OF_ASC_NODE": 103.6685, "ARG_OF_PERICENTER": 84.488, "MEAN_ANOMALY": 91.9811, "EPHEMERIS_TYPE": 0, "CLASSIFICATION_TYPE": "U", "NORAD_CAT_ID": 31862, "ELEMENT_SET_NO": 999, "REV_AT_EPOCH": 4379, "BSTAR": 0, "MEAN_MOTION_DOT": -7.8e-07, "MEAN_MOTION_DDOT": 0}, "tle": {"line1": "1 31862U 07032A   25353.81745256 -.00000078  00000+0  00000+0 0  9992", "line2": "2 31862   0.0066 103.6685 0000251  84.4880  91.9811  1.00269717 43798"}}, "geometry": {"type": "Point", "coordinates": [71.71003878962188, -0.0013757707847900805]}}, {"type": "Feature", "properties": {"norad_id": 32253, "name": "INTELSAT 11 (IS-11)", "group": "intelsat", "lat": -2.969171191571385, "lon": 7.34288258556017, "alt_km": 36148.80040198345, "timestamp": "2025-12-20T05:41:49.685795+00:00", "meta": {"OBJECT_NAME": "INTELSAT 11 (IS-11)", "OBJECT_ID": "2007-044B", "EPOCH": "2025-12-19T15:54:17.392320", "MEAN_MOTION": 0.99051924, "ECCENTRICITY": 0.0008546, "INCLINATION": 3.0972, "RA_OF_ASC_NODE": 80.9007, "ARG_OF_PERICENTER": 168.5699, "MEAN_ANOMALY": 272.8399, "EPHEMERIS_TYPE": 0, "CLASSIFICATION_TYPE": "U", "NORAD_CAT_ID": 32253, "ELEMENT_SET_NO": 999, "REV_AT_EPOCH": 6667, "BSTAR": 0, "MEAN_MOTION_DOT": -3.8e-07, "MEAN_MOTION_DDOT": 0}, "tle": {"line1": "1 32253U 07044B   25353.66270130 -.00000038  00000+0  00000+0 0  9993", "line2": "2 32253   3.0972  80.9007 0008546 168.5699 272.8399  0.99051924 66673"}}, "geometry": {"type": "Point", "coordinates": [7.34288258556017, -2.969171191571385]}}, {"type": "Feature", "properties": {"norad_id": 32388, "name": "HORIZONS-2", "group": "intelsat", "lat": 0.683055765795437, "lon": 100.72484718626676, "alt_km": 35805.2870787557, "timestamp": "2025-12-20T05:41:49.685807+00:00", "meta": {"OBJECT_NAME": "HORIZONS-2", "OBJECT_ID": "2007-063B", "EPOCH": "2025-12-19T11:12:06.914880", "MEAN_MOTION": 1.00272112, "ECCENTRICITY": 0.0004573, "INCLINATION": 2.1381, "RA_OF_ASC_NODE": 82.8899, "ARG_OF_PERICENTER": 193.0315, "MEAN_ANOMALY": 266.6388, "EPHEMERIS_TYPE": 0, "CLASSIFICATION_TYPE": "U", "NORAD_CAT_ID": 32388, "ELEMENT_SET_NO": 999, "REV_AT_EPOCH": 6601, "BSTAR": 0, "MEAN_MOTION_DOT": -2.31e-06, "MEAN_MOTION_DDOT": 0}, "tle": {"line1": "1 32388U 07063B   25353.46674670 -.00000231  00000+0  00000+0 0  9993", "line2": "2 32388   2.1381  82.8899 0004573 193.0315 266.6388  1.00272112 66014"}}, "geometry": {"type": "Point", "coordinates": [100.72484718626676, 0.683055765795437]}}, {"type": "Feature", "properties": {"norad_id": 32729, "name": "DIRECTV 11", "group": "intelsat", "lat": 0.016685523122904007, "lon": 75.33213182897825, "alt_km": 35786.1220453067, "timestamp": "2025-12-20T05:41:49.685819+00:00", "meta": {"OBJECT_NAME": "DIRECTV 11", "OBJECT_ID": "2008-013A", "EPOCH": "2025-12-19T16:13:00.599232", "MEAN_MOTION": 1.00272169, "ECCENTRICITY": 4.774e-05, "INCLINATION": 0.0442, "RA_OF_ASC_NODE": 195.9689, "ARG_OF_PERICENTER": 333.3014, "MEAN_ANOMALY": 63.3182, "EPHEMERIS_TYPE": 0, "CLASSIFICATION_TYPE": "U", "NORAD_CAT_ID": 32729, "ELEMENT_SET_NO": 999, "REV_AT_EPOCH": 4379, "BSTAR": 0, "MEAN_MOTION_DOT": -1.01e-06, "MEAN_MOTION_DDOT": 0}, "tle": {"line1": "1 32729U 08013A   25353.67570138 -.00000101  00000+0  00000+0 0  9991", "line2": "2 32729   0.0442 195.9689 0000477 333.3014  63.3182  1.00272169 43791"}}, "geometry": {"type": "Point", "coordinates": [75.33213182897825, 0.016685523122904007]}}, {"type": "Feature", "properties": {"norad_id": 32951, "name": "GALAXY 18 (G-18)", "group": "intelsat", "lat": 0.01587494128123297, "lon": 51.53361336375257, "alt_km": 35795.24937791016, "timestamp": "2025-12-20T05:41:49.685831+00:00", "meta": {"OBJECT_NAME": "GALAXY 18 (G-18)", "OBJECT_ID": "2008-024A", "EPOCH": "2025-12-19T17:48:48.275424", "MEAN_MOTION": 1.00270899, "ECCENTRICITY": 0.00028142, "INCLINATION": 0.0134, "RA_OF_ASC_NODE": 45.0802, "ARG_OF_PERICENTER": 227.8761, "MEAN_ANOMALY": 319.8233, "EPHEMERIS_TYPE": 0, "CLASSIFICATION_TYPE": "U", "NORAD_CAT_ID": 32951, "ELEMENT_SET_NO": 999, "REV_AT_EPOCH": 4405, "BSTAR": 0, "MEAN_MOTION_DOT": 5e-07, "MEAN_MOTION_DDOT": 0}, "tle": {"line1": "1 32951U 08024A   25353.74222541  .00000050  00000+0  00000+0 0  9992", "line2": "2 32951   0.0134  45.0802 0002814 227.8761 319.8233  1.00270899 44055"}}, "geometry": {"type": "Point", "coordinates": [51.53361336375257, 0.01587494128123297]}}]}